{
    "links": {
        "self": "http://www.neowsapp.com/rest/v1/neo/3836259?api_key=iIulBulltgU6a56xZRHN4H3l9WmuAYTsLGpBGhQ2"
    },
    "id": "3836259",
    "neo_reference_id": "3836259",
    "name": "(2018 VH10)",
    "designation": "2018 VH10",
    "nasa_jpl_url": "http://ssd.jpl.nasa.gov/sbdb.cgi?sstr=3836259",
    "absolute_magnitude_h": 25.1,
    "estimated_diameter": {
        "kilometers": {
            "estimated_diameter_min": 0.0253837029,
            "estimated_diameter_max": 0.0567596853
        },
        "meters": {
            "estimated_diameter_min": 25.3837029364,
            "estimated_diameter_max": 56.7596852866
        },
        "miles": {
            "estimated_diameter_min": 0.0157726969,
            "estimated_diameter_max": 0.0352688224
        },
        "feet": {
            "estimated_diameter_min": 83.279867942,
            "estimated_diameter_max": 186.2194458756
        }
    },
    "is_potentially_hazardous_asteroid": false,
    "close_approach_data": [
        {
            "close_approach_date": "2018-11-18",
            "close_approach_date_full": "2018-Nov-18 11:13",
            "epoch_date_close_approach": 1542539580000,
            "relative_velocity": {
                "kilometers_per_second": "14.0266472865",
                "kilometers_per_hour": "50495.9302315624",
                "miles_per_hour": "31376.2073152727"
            },
            "miss_distance": {
                "astronomical": "0.011284593",
                "lunar": "4.389706677",
                "kilometers": "1688151.07661691",
                "miles": "1048968.437696958"
            },
            "orbiting_body": "Earth"
        }
    ],
    "orbital_data": {
        "orbit_id": "2",
        "orbit_determination_date": "2019-07-27 14:01:24",
        "first_observation_date": "2018-11-15",
        "last_observation_date": "2018-11-17",
        "data_arc_in_days": 2,
        "observations_used": 32,
        "orbit_uncertainty": "7",
        "minimum_orbit_intersection": ".00872802",
        "jupiter_tisserand_invariant": "3.682",
        "epoch_osculation": "2459000.5",
        "eccentricity": ".5787859280149554",
        "semi_major_axis": "1.929646744201057",
        "inclination": "7.074967137194662",
        "ascending_node_longitude": "60.38372840670349",
        "orbital_period": "979.0731561752756",
        "perihelion_distance": ".8127943626176111",
        "perihelion_argument": "54.54735397824631",
        "aphelion_distance": "3.046499125784504",
        "perihelion_time": "2459460.433868249224",
        "mean_anomaly": "190.8847591976275",
        "mean_motion": ".3676946893389774",
        "equinox": "J2000",
        "orbit_class": {
            "orbit_class_type": "APO",
            "orbit_class_description": "Near-Earth asteroid orbits which cross the Earth’s orbit similar to that of 1862 Apollo",
            "orbit_class_range": "a (semi-major axis) > 1.0 AU; q (perihelion) < 1.017 AU"
        }
    },
    "is_sentry_object": false
}